NORAD_CAT_ID,OBJECT_NAME,OBJECT_TYPE,EPOCH,MEAN_MOTION,ECCENTRICITY,INCLINATION,RA_OF_ASC_NODE,ARG_OF_PERICENTER,MEAN_ANOMALY,BSTAR,MEAN_MOTION_DOT,MEAN_MOTION_DDOT,TLE_LINE0,TLE_LINE1,TLE_LINE2,SEMIMAJOR_AXIS,PERIOD,APOGEE,PERIGEE,DECAYED
51105.0,STARLINK-3350,PAYLOAD,2023-12-16 07:00:37,15.08811781,0.0001864,53.2188,345.0954,110.3474,249.7718,0.00030895,4.629e-05,0.0,0 STARLINK-3350,1 51105U 22005B   23350.29209574  .00004629  00000-0  30895-3 0  9991,2 51105  53.2188 345.0954 0001864 110.3474 249.7718 15.08811781107040,6917.967,95.439,541.121,538.542,0.0
51105.0,STARLINK-3350,PAYLOAD,2023-12-17 03:40:37,15.08842251,0.000161,53.2182,341.2297,111.9713,248.145,-2.9487e-05,-7.57e-06,0.0,0 STARLINK-3350,1 51105U 22005B   23351.15321045 -.00000757  00000-0 -29487-4 0  9991,2 51105  53.2182 341.2297 0001610 111.9713 248.1450 15.08842251107170,6917.874,95.437,540.852,538.625,0.0
51105.0,STARLINK-3350,PAYLOAD,2023-12-17 06:51:23,15.08819711,0.000171,53.2181,340.6336,103.8712,256.247,0.00037204,5.635e-05,0.0,0 STARLINK-3350,1 51105U 22005B   23351.28569353  .00005635  00000-0  37204-3 0  9994,2 51105  53.2181 340.6336 0001710 103.8712 256.2470 15.08819711107195,6917.942,95.439,540.99,538.624,0.0
51105.0,STARLINK-3350,PAYLOAD,2023-12-18 03:31:23,15.08849396,0.0001453,53.218,336.767,94.9368,265.179,0.00018741,2.697e-05,0.0,0 STARLINK-3350,1 51105U 22005B   23352.14680128  .00002697  00000-0  18741-3 0  9994,2 51105  53.2180 336.7670 0001453  94.9368 265.1790 15.08849396107323,6917.852,95.437,540.722,538.712,0.0
51105.0,STARLINK-3350,PAYLOAD,2023-12-18 06:42:10,15.08837607,0.0001861,53.2185,336.1729,75.5269,284.5929,0.00083791,0.00013072,0.0,0 STARLINK-3350,1 51105U 22005B   23352.27929114  .00013072  00000-0  83791-3 0  9995,2 51105  53.2185 336.1729 0001861  75.5269 284.5929 15.08837607107348,6917.888,95.438,541.04,538.465,0.0
51105.0,STARLINK-3350,PAYLOAD,2023-12-19 03:22:11,15.08836939,0.000151,53.2175,332.3075,78.6624,281.4538,-2.8615e-05,-7.43e-06,0.0,0 STARLINK-3350,1 51105U 22005B   23353.14041181 -.00000743  00000-0 -28615-4 0  9999,2 51105  53.2175 332.3075 0001510  78.6624 281.4538 15.08836939107472,6917.89,95.438,540.799,538.71,0.0
51105.0,STARLINK-3350,PAYLOAD,2023-12-19 06:32:58,15.08836609,0.0001621,53.2184,331.7137,68.8094,291.3071,-6.7267e-06,-3.95e-06,0.0,0 STARLINK-3350,1 51105U 22005B   23353.27289352 -.00000395  00000-0 -67267-5 0  9997,2 51105  53.2184 331.7137 0001621  68.8094 291.3071 15.08836609106384,6917.891,95.438,540.877,538.634,0.0
51105.0,STARLINK-3350,PAYLOAD,2023-12-20 04:48:22,15.08840831,0.0001776,53.2176,327.5534,62.1366,297.9806,0.00015612,2.198e-05,0.0,0 STARLINK-3350,1 51105U 22005B   23354.20025591  .00002198  00000-0  15612-3 0  9990,2 51105  53.2176 327.5534 0001776  62.1366 297.9806 15.08840831107638,6917.878,95.438,540.971,538.514,0.0
51105.0,STARLINK-3350,PAYLOAD,2023-12-21 04:39:08,15.08857944,0.0001473,53.2159,323.0946,75.7099,284.4057,0.0006114,9.461e-05,0.0,0 STARLINK-3350,1 51105U 22005B   23355.19385080  .00009461  00000-0  61140-3 0  9998,2 51105  53.2159 323.0946 0001473  75.7099 284.4057 15.08857944107782,6917.826,95.436,540.71,538.672,0.0
51105.0,STARLINK-3350,PAYLOAD,2023-12-22 02:54:32,15.08844497,0.0001799,53.2181,318.9252,117.6882,242.4293,0.00015485,2.178e-05,0.0,0 STARLINK-3350,1 51105U 22005B   23356.12121099  .00002178  00000-0  15485-3 0  9999,2 51105  53.2181 318.9252 0001799 117.6882 242.4293 15.08844497107928,6917.867,95.437,540.976,538.487,0.0
51105.0,STARLINK-3350,PAYLOAD,2023-12-22 04:29:55,15.08841128,0.0001692,53.2179,318.6311,112.3008,247.8164,8.2716e-05,1.029e-05,0.0,0 STARLINK-3350,1 51105U 22005B   23356.18745253  .00001029  00000-0  82716-4 0  9995,2 51105  53.2179 318.6311 0001692 112.3008 247.8164 15.08841128106824,6917.877,95.437,540.912,538.571,0.0
51105.0,STARLINK-3350,PAYLOAD,2023-12-23 02:45:19,15.08842726,0.0001463,53.2175,314.4648,88.8965,271.2194,0.00024986,3.691e-05,0.0,0 STARLINK-3350,1 51105U 22005B   23357.11481200  .00003691  00000-0  24986-3 0  9999,2 51105  53.2175 314.4648 0001463  88.8965 271.2194 15.08842726108070,6917.872,95.437,540.749,538.725,0.0
51105.0,STARLINK-3350,PAYLOAD,2023-12-23 20:14:34,15.08842232,0.0001658,53.2175,311.1967,111.4923,248.6246,0.00018913,2.723e-05,0.0,0 STARLINK-3350,1 51105U 22005B   23357.84345520  .00002723  00000-0  18913-3 0  9991,2 51105  53.2175 311.1967 0001658 111.4923 248.6246 15.08842232108181,6917.874,95.437,540.886,538.592,0.0
51105.0,STARLINK-3350,PAYLOAD,2023-12-24 02:36:07,15.0884038,0.0001587,53.2176,310.0062,105.6742,254.4426,0.00015103,2.116e-05,0.0,0 STARLINK-3350,1 51105U 22005B   23358.10841705  .00002116  00000-0  15103-3 0  9991,2 51105  53.2176 310.0062 0001587 105.6742 254.4426 15.08840380107110,6917.879,95.438,540.842,538.646,0.0
51105.0,STARLINK-3350,PAYLOAD,2023-12-25 04:02:17,15.08852039,0.0001392,53.2169,305.2513,83.7787,276.3363,0.00028095,4.188e-05,0.0,0 STARLINK-3350,1 51105U 22005B   23359.16825523  .00004188  00000-0  28095-3 0  9993,2 51105  53.2169 305.2513 0001392  83.7787 276.3363 15.08852039108385,6917.844,95.437,540.672,538.746,0.0
51105.0,STARLINK-3350,PAYLOAD,2023-12-25 05:37:40,15.08854982,0.0001602,53.2176,304.9505,106.4398,253.677,0.00055221,8.515e-05,0.0,0 STARLINK-3350,1 51105U 22005B   23359.23449323  .00008515  00000-0  55221-3 0  9990,2 51105  53.2176 304.9505 0001602 106.4398 253.6770 15.08854982107282,6917.835,95.437,540.808,538.591,0.0
51105.0,STARLINK-3350,PAYLOAD,2023-12-26 03:53:04,15.08839794,0.0001449,53.2162,300.7903,74.9577,285.1576,0.00030004,4.49e-05,0.0,0 STARLINK-3350,1 51105U 22005B   23360.16186181  .00004490  00000-0  30004-3 0  9994,2 51105  53.2162 300.7903 0001449  74.9577 285.1576 15.08839794108537,6917.881,95.438,540.748,538.744,0.0
51105.0,STARLINK-3350,PAYLOAD,2023-12-26 05:28:27,15.08843337,0.0001391,53.2164,300.4919,83.6655,276.4496,0.00046323,7.093e-05,0.0,0 STARLINK-3350,1 51105U 22005B   23360.22810074  .00007093  00000-0  46323-3 0  9999,2 51105  53.2164 300.4919 0001391  83.6655 276.4496 15.08843337107433,6917.87,95.437,540.697,538.773,0.0
51105.0,STARLINK-3350,PAYLOAD,2023-12-27 02:08:29,15.08833804,0.0001829,53.217,296.6188,139.7396,220.3731,0.0003172,4.763e-05,0.0,0 STARLINK-3350,1 51105U 22005B   23361.08922654  .00004763  00000-0  31720-3 0  9998,2 51105  53.2170 296.6188 0001829 139.7396 220.3731 15.08833804108670,6917.899,95.438,541.03,538.499,0.0
51105.0,STARLINK-3350,PAYLOAD,2023-12-27 05:19:15,15.08834131,0.0001391,53.2172,296.027,108.0598,252.0546,0.00059525,9.197e-05,0.0,0 STARLINK-3350,1 51105U 22005B   23361.22170988  .00009197  00000-0  59525-3 0  9998,2 51105  53.2172 296.0270 0001391 108.0598 252.0546 15.08834131107584,6917.898,95.438,540.726,538.801,0.0
51105.0,STARLINK-3350,PAYLOAD,2023-12-28 05:10:02,15.0886933,0.0001557,53.2178,291.5668,84.9353,275.1817,0.0010469,0.00016426,0.0,0 STARLINK-3350,1 51105U 22005B   23362.21530374  .00016426  00000-0  10469-2 0  9993,2 51105  53.2178 291.5668 0001557  84.9353 275.1817 15.08869330108842,6917.791,95.436,540.733,538.579,0.0
51105.0,STARLINK-3350,PAYLOAD,2023-12-28 19:28:30,15.08850701,0.0001784,53.2173,288.8914,89.1644,270.9553,0.00032588,4.904e-05,0.0,0 STARLINK-3350,1 51105U 22005B   23362.81146527  .00004904  00000-0  32588-3 0  9997,2 51105  53.2173 288.8914 0001784  89.1644 270.9553 15.08850701108934,6917.848,95.437,540.947,538.479,0.0
51105.0,STARLINK-3350,PAYLOAD,2023-12-28 22:39:16,15.08850311,0.0001637,53.2184,288.297,86.4439,273.6741,0.00021353,3.113e-05,0.0,0 STARLINK-3350,1 51105U 22005B   23362.94394453  .00003113  00000-0  21353-3 0  9993,2 51105  53.2184 288.2970 0001637  86.4439 273.6741 15.08850311107846,6917.849,95.437,540.846,538.581,0.0
51105.0,STARLINK-3350,PAYLOAD,2023-12-29 05:00:49,15.08848888,0.0001461,53.2172,287.1078,86.3095,273.8064,0.00045551,6.971e-05,0.0,0 STARLINK-3350,1 51105U 22005B   23363.20890454  .00006971  00000-0  45551-3 0  9996,2 51105  53.2172 287.1078 0001461  86.3095 273.8064 15.08848888107882,6917.853,95.437,540.729,538.708,0.0
51105.0,STARLINK-3350,PAYLOAD,2023-12-29 22:30:03,15.08848117,0.000153,53.2171,283.8358,90.7515,269.3652,0.00037561,5.696e-05,0.0,0 STARLINK-3350,1 51105U 22005B   23363.93754342  .00005696  00000-0  37561-3 0  9996,2 51105  53.2171 283.8358 0001530  90.7515 269.3652 15.08848117107998,6917.856,95.437,540.779,538.662,0.0
51105.0,STARLINK-3350,PAYLOAD,2023-12-30 01:40:49,15.08852615,0.0001624,53.2174,283.2419,87.1702,272.9476,0.00043814,6.694e-05,0.0,0 STARLINK-3350,1 51105U 22005B   23364.07002189  .00006694  00000-0  43814-3 0  9994,2 51105  53.2174 283.2419 0001624  87.1702 272.9476 15.08852615109124,6917.842,95.437,540.83,538.583,0.0
51105.0,STARLINK-3350,PAYLOAD,2023-12-30 22:20:50,15.08842129,0.0001779,53.2172,279.376,116.0576,244.06,5.2582e-05,5.49e-06,0.0,0 STARLINK-3350,1 51105U 22005B   23364.93114226  .00000549  00000-0  52582-4 0  9991,2 51105  53.2172 279.3760 0001779 116.0576 244.0600 15.08842129108148,6917.874,95.437,540.97,538.508,0.0
51105.0,STARLINK-3350,PAYLOAD,2023-12-31 01:31:37,15.08838936,0.000152,53.2171,278.7813,103.4856,256.6306,1.0432e-05,-1.22e-06,0.0,0 STARLINK-3350,1 51105U 22005B   23365.06362406 -.00000122  00000-0  10432-4 0  9997,2 51105  53.2171 278.7813 0001520 103.4856 256.6306 15.08838936109272,6917.884,95.438,540.8,538.697,0.0
51105.0,STARLINK-3350,PAYLOAD,2023-12-31 22:11:38,15.08839362,0.0001438,53.217,274.9179,96.9698,263.1457,-8.6413e-05,-1.663e-05,0.0,0 STARLINK-3350,1 51105U 22005B   23365.92474683 -.00001663  00000-0 -86413-4 0  9997,2 51105  53.2170 274.9179 0001438  96.9698 263.1457 15.08839362108297,6917.882,95.438,540.742,538.753,0.0
51105.0,STARLINK-3350,PAYLOAD,2024-01-01 14:05:29,15.08840995,0.0001408,53.2164,271.9434,100.8115,259.3035,0.00019454,2.81e-05,0.0,0 STARLINK-3350,1 51105U 22005B   24001.58714701  .00002810  00000-0  19454-3 0  9998,2 51105  53.2164 271.9434 0001408 100.8115 259.3035 15.08840995108391,6917.877,95.437,540.716,538.768,0.0
